CCSDS_OMM_VERS,COMMENT,CREATION_DATE,ORIGINATOR,OBJECT_NAME,OBJECT_ID,CENTER_NAME,REF_FRAME,TIME_SYSTEM,MEAN_ELEMENT_THEORY,EPOCH,MEAN_MOTION,ECCENTRICITY,INCLINATION,RA_OF_ASC_NODE,ARG_OF_PERICENTER,MEAN_ANOMALY,EPHEMERIS_TYPE,CLASSIFICATION_TYPE,NORAD_CAT_ID,ELEMENT_SET_NO,REV_AT_EPOCH,BSTAR,MEAN_MOTION_DOT,MEAN_MOTION_DDOT,SEMIMAJOR_AXIS,PERIOD,APOAPSIS,PERIAPSIS,OBJECT_TYPE,RCS_SIZE,COUNTRY_CODE,LAUNCH_DATE,SITE,DECAY_DATE,FILE,GP_ID,TLE_LINE0,TLE_LINE1,TLE_LINE2
2,GENERATED VIA SPACE-TRACK.ORG API,2017-12-06T23:52:55,18 SPCS,JCSAT 2,1990-001B,EARTH,TEME,UTC,SGP4,2017-12-06T08:15:04.788288,0.98537347,0.0066085,13.2808,37.6913,243.4582,137.9077,0,U,20402,999,8464,0.0,-3.8e-07,0,42658.076,1461.374,36561.846,35998.035,PAYLOAD,LARGE,JPN,1990-01-01,AFETR,,2217235,116150334,0 JCSAT 2,1 20402U 90001B   17340.34380542 -.00000038 +00000-0 +00000-0 0  9994,2 20402 013.2808 037.6913 0066085 243.4582 137.9077 00.98537347084646
2,GENERATED VIA SPACE-TRACK.ORG API,2017-12-07T12:05:52,18 SPCS,JCSAT 2,1990-001B,EARTH,TEME,UTC,SGP4,2017-12-07T06:11:12.929856,0.98537708,0.0066102,13.2819,37.6821,243.5045,102.0968,0,U,20402,999,8464,0.0,-5.9e-07,0,42657.971,1461.369,36561.814,35997.859,PAYLOAD,LARGE,JPN,1990-01-01,AFETR,,2217428,116163613,0 JCSAT 2,1 20402U 90001B   17341.25778854 -.00000059 +00000-0 +00000-0 0  9995,2 20402 013.2819 037.6821 0066102 243.5045 102.0968 00.98537708084644
2,GENERATED VIA SPACE-TRACK.ORG API,2017-12-07T12:48:05,18 SPCS,JCSAT 2,1990-001B,EARTH,TEME,UTC,SGP4,2017-12-07T10:15:38.003616,0.98537778,0.0066104,13.2821,37.6803,243.513,162.3019,0,U,20402,999,8463,0.0,-6.3e-07,0,42657.951,1461.368,36561.802,35997.83,PAYLOAD,LARGE,JPN,1990-01-01,AFETR,,2217483,116171296,0 JCSAT 2,1 20402U 90001B   17341.42752319 -.00000063  00000-0  00000+0 0  9996,2 20402  13.2821  37.6803 0066104 243.5130 162.3019  0.98537778 84636
2,GENERATED VIA SPACE-TRACK.ORG API,2017-12-08T23:25:13,18 SPCS,JCSAT 2,1990-001B,EARTH,TEME,UTC,SGP4,2017-12-08T09:53:04.651296,0.9853809,0.0066129,13.2832,37.6704,243.5623,151.4429,0,U,20402,999,8466,0.0,-8.9e-07,0,42657.861,1461.363,36561.818,35997.634,PAYLOAD,LARGE,JPN,1990-01-01,AFETR,,2218146,116222136,0 JCSAT 2,1 20402U 90001B   17342.41185939 -.00000089 +00000-0 +00000-0 0  9993,2 20402 013.2832 037.6704 0066129 243.5623 151.4429 00.98538090084667
2,GENERATED VIA SPACE-TRACK.ORG API,2017-12-10T00:21:44,18 SPCS,JCSAT 2,1990-001B,EARTH,TEME,UTC,SGP4,2017-12-09T09:35:03.886656,0.98538558,0.0066155,13.2844,37.6604,243.6105,141.7119,0,U,20402,999,8467,0.0,-1.16e-06,0,42657.726,1461.356,36561.793,35997.389,PAYLOAD,LARGE,JPN,1990-01-01,AFETR,,2218644,116247506,0 JCSAT 2,1 20402U 90001B   17343.39935054 -.00000116 +00000-0 +00000-0 0  9993,2 20402 013.2844 037.6604 0066155 243.6105 141.7119 00.98538558084672
2,GENERATED VIA SPACE-TRACK.ORG API,2017-12-10T22:48:56,18 SPCS,JCSAT 2,1990-001B,EARTH,TEME,UTC,SGP4,2017-12-10T12:35:45.685248,0.98538952,0.0066198,13.2858,37.6491,243.6721,180.9175,0,U,20402,999,8466,0.0,-1.47e-06,0,42657.612,1461.351,36561.862,35997.093,PAYLOAD,LARGE,JPN,1990-01-01,AFETR,,2218655,116265361,0 JCSAT 2,1 20402U 90001B   17344.52483432 -.00000147 +00000-0 +00000-0 0  9991,2 20402 013.2858 037.6491 0066198 243.6721 180.9175 00.98538952084666
2,GENERATED VIA SPACE-TRACK.ORG API,2017-12-11T23:40:41,18 SPCS,JCSAT 2,1990-001B,EARTH,TEME,UTC,SGP4,2017-12-11T09:55:26.819040,0.98539275,0.0066223,13.2868,37.6403,243.7284,136.1214,0,U,20402,999,8469,0.0,-1.71e-06,0,42657.519,1461.346,36561.875,35996.893,PAYLOAD,LARGE,JPN,1990-01-01,AFETR,,2219524,116301417,0 JCSAT 2,1 20402U 90001B   17345.41350485 -.00000171 +00000-0 +00000-0 0  9998,2 20402 013.2868 037.6403 0066223 243.7284 136.1214 00.98539275084693
2,GENERATED VIA SPACE-TRACK.ORG API,2017-12-12T23:07:20,18 SPCS,JCSAT 2,1990-001B,EARTH,TEME,UTC,SGP4,2017-12-12T09:08:39.835104,0.98539569,0.0066276,13.288,37.6307,243.8309,119.2486,0,U,20402,999,8470,0.0,-1.94e-06,0,42657.434,1461.341,36562.016,35996.583,PAYLOAD,LARGE,JPN,1990-01-01,AFETR,,2219708,116322637,0 JCSAT 2,1 20402U 90001B   17346.38101661 -.00000194 +00000-0 +00000-0 0  9990,2 20402 013.2880 037.6307 0066276 243.8309 119.2486 00.98539569084708
2,GENERATED VIA SPACE-TRACK.ORG API,2017-12-13T15:07:45,18 SPCS,JCSAT 2,1990-001B,EARTH,TEME,UTC,SGP4,2017-12-13T09:01:39.653760,0.9853972,0.0066291,13.2891,37.6206,243.8855,112.2217,0,U,20402,999,8469,0.0,-2.15e-06,0,42657.391,1461.339,36562.036,35996.476,PAYLOAD,LARGE,JPN,1990-01-01,AFETR,,2220050,116343617,0 JCSAT 2,1 20402U 90001B   17347.37615340 -.00000215  00000-0  00000+0 0  9997,2 20402  13.2891  37.6206 0066291 243.8855 112.2217  0.98539720 84693
2,GENERATED VIA SPACE-TRACK.ORG API,2017-12-14T23:19:46,18 SPCS,JCSAT 2,1990-001B,EARTH,TEME,UTC,SGP4,2017-12-14T09:51:42.566976,0.98539895,0.0066315,13.2903,37.6103,243.9512,119.2436,0,U,20402,999,8472,0.0,-2.33e-06,0,42657.34,1461.337,36562.087,35996.323,PAYLOAD,LARGE,JPN,1990-01-01,AFETR,,2220692,116377740,0 JCSAT 2,1 20402U 90001B   17348.41090934 -.00000233 +00000-0 +00000-0 0  9990,2 20402 013.2903 037.6103 0066315 243.9512 119.2436 00.98539895084728
2,GENERATED VIA SPACE-TRACK.ORG API,2017-12-15T17:23:17,18 SPCS,JCSAT 2,1990-001B,EARTH,TEME,UTC,SGP4,2017-12-15T09:50:42.563904,0.98539991,0.0066337,13.2916,37.6004,244.0219,113.6852,0,U,20402,999,8471,0.0,-2.44e-06,0,42657.313,1461.335,36562.153,35996.202,PAYLOAD,LARGE,JPN,1990-01-01,AFETR,,2220980,116397579,0 JCSAT 2,1 20402U 90001B   17349.41021486 -.00000244  00000-0  00000+0 0  9998,2 20402  13.2916  37.6004 0066337 244.0219 113.6852  0.98539991 84718
2,GENERATED VIA SPACE-TRACK.ORG API,2017-12-15T23:28:56,18 SPCS,JCSAT 2,1990-001B,EARTH,TEME,UTC,SGP4,2017-12-15T10:50:42.607392,0.98540071,0.0066325,13.2916,37.5999,243.9977,128.4948,0,U,20402,999,8473,0.0,-2.45e-06,0,42657.289,1461.334,36562.079,35996.23,PAYLOAD,LARGE,JPN,1990-01-01,AFETR,,2221203,116405287,0 JCSAT 2,1 20402U 90001B   17349.45188203 -.00000245 +00000-0 +00000-0 0  9995,2 20402 013.2916 037.5999 0066325 243.9977 128.4948 00.98540071084739
2,GENERATED VIA SPACE-TRACK.ORG API,2017-12-16T23:04:15,18 SPCS,JCSAT 2,1990-001B,EARTH,TEME,UTC,SGP4,2017-12-16T10:23:39.672384,0.98539994,0.0066354,13.2928,37.5902,244.091,116.4936,0,U,20402,999,8474,0.0,-2.49e-06,0,42657.312,1461.335,36562.225,35996.128,PAYLOAD,LARGE,JPN,1990-01-01,AFETR,,2221620,116431154,0 JCSAT 2,1 20402U 90001B   17350.43309806 -.00000249 +00000-0 +00000-0 0  9993,2 20402 013.2928 037.5902 0066354 244.0910 116.4936 00.98539994084744
2,GENERATED VIA SPACE-TRACK.ORG API,2017-12-17T22:41:31,18 SPCS,JCSAT 2,1990-001B,EARTH,TEME,UTC,SGP4,2017-12-17T10:54:12.638880,0.98539856,0.0066374,13.2939,37.5799,244.1751,118.6931,0,U,20402,999,8475,0.0,-2.48e-06,0,42657.351,1461.337,36562.35,35996.083,PAYLOAD,LARGE,JPN,1990-01-01,AFETR,,2222030,116456818,0 JCSAT 2,1 20402U 90001B   17351.45431295 -.00000248 +00000-0 +00000-0 0  9993,2 20402 013.2939 037.5799 0066374 244.1751 118.6931 00.98539856084753
2,GENERATED VIA SPACE-TRACK.ORG API,2017-12-17T23:00:09,18 SPCS,JCSAT 2,1990-001B,EARTH,TEME,UTC,SGP4,2017-12-17T10:54:12.638880,0.98539856,0.0066374,13.2939,37.5799,244.1751,118.6931,0,U,20402,999,8473,0.0,-2.48e-06,0,42657.351,1461.337,36562.35,35996.083,PAYLOAD,LARGE,JPN,1990-01-01,AFETR,,2222060,116463540,0 JCSAT 2,1 20402U 90001B   17351.45431295 -.00000248  00000-0  00000+0 0  9992,2 20402  13.2939  37.5799 0066374 244.1751 118.6931  0.98539856 84731
2,GENERATED VIA SPACE-TRACK.ORG API,2017-12-18T13:19:51,18 SPCS,JCSAT 2,1990-001B,EARTH,TEME,UTC,SGP4,2017-12-17T12:19:56.552736,0.98539869,0.0066373,13.294,37.5793,244.1771,139.813,0,U,20402,999,8475,0.0,-2.47e-06,0,42657.348,1461.337,36562.342,35996.083,PAYLOAD,LARGE,JPN,1990-01-01,AFETR,,2222307,116470746,0 JCSAT 2,1 20402U 90001B   17351.51384899 -.00000247 +00000-0 +00000-0 0  9996,2 20402 013.2940 037.5793 0066373 244.1771 139.8130 00.98539869084750
2,GENERATED VIA SPACE-TRACK.ORG API,2017-12-19T00:42:45,18 SPCS,JCSAT 2,1990-001B,EARTH,TEME,UTC,SGP4,2017-12-18T11:41:48.890688,0.9853963,0.0066381,13.2952,37.5696,244.2428,125.1106,0,U,20402,999,8476,0.0,-2.39e-06,0,42657.417,1461.34,36562.446,35996.118,PAYLOAD,LARGE,JPN,1990-01-01,AFETR,,2222469,116481159,0 JCSAT 2,1 20402U 90001B   17352.48737142 -.00000239 +00000-0 +00000-0 0  9997,2 20402 013.2952 037.5696 0066381 244.2428 125.1106 00.98539630084762
2,GENERATED VIA SPACE-TRACK.ORG API,2017-12-19T22:58:43,18 SPCS,JCSAT 2,1990-001B,EARTH,TEME,UTC,SGP4,2017-12-19T11:14:39.688224,0.98539216,0.006639,13.2964,37.5598,244.3229,113.0924,0,U,20402,999,8475,0.0,-2.24e-06,0,42657.536,1461.347,36562.605,35996.198,PAYLOAD,LARGE,JPN,1990-01-01,AFETR,,2222990,116504937,0 JCSAT 2,1 20402U 90001B   17353.46851491 -.00000224  00000-0  00000+0 0  9993,2 20402  13.2964  37.5598 0066390 244.3229 113.0924  0.98539216 84759
2,GENERATED VIA SPACE-TRACK.ORG API,2017-12-19T23:29:01,18 SPCS,JCSAT 2,1990-001B,EARTH,TEME,UTC,SGP4,2017-12-19T11:14:39.688224,0.98539216,0.006639,13.2964,37.5598,244.3229,113.0924,0,U,20402,999,8476,0.0,-2.24e-06,0,42657.536,1461.347,36562.605,35996.198,PAYLOAD,LARGE,JPN,1990-01-01,AFETR,,2223033,116509185,0 JCSAT 2,1 20402U 90001B   17353.46851491 -.00000224 +00000-0 +00000-0 0  9994,2 20402 013.2964 037.5598 0066390 244.3229 113.0924 00.98539216084760
2,GENERATED VIA SPACE-TRACK.ORG API,2017-12-21T06:59:58,18 SPCS,JCSAT 2,1990-001B,EARTH,TEME,UTC,SGP4,2017-12-20T13:33:34.367904,0.98538835,0.0066388,13.2978,37.5488,244.393,142.0006,0,U,20402,999,8478,0.0,-2.02e-06,0,42657.646,1461.352,36562.707,35996.316,PAYLOAD,LARGE,JPN,1990-01-01,AFETR,,2223614,116547240,0 JCSAT 2,1 20402U 90001B   17354.56498111 -.00000202 +00000-0 +00000-0 0  9998,2 20402 013.2978 037.5488 0066388 244.3930 142.0006 00.98538835084780
